[Satellite]
VERSION=1.1
NAME=HAMSAT (VO-52)
NICKNAME=VO-52
TLE1=1 28650U 05017B   15054.17417713  .00002932  00000-0  33267-3 0  9990
TLE2=2 28650  97.5705  51.8822 0025560  52.0851 308.2671 14.86823114530509
